{
  "type": "FeatureCollection",
  "features": [
    {
      "type": "Feature",
      "properties": {
        "norad_id": 31878,
        "name": "FENGYUN 1C DEB",
        "group": "fengyun-1c-debris",
        "lat": -38.66264801701896,
        "lon": -93.90714698214524,
        "alt_km": 580.3076157673222,
        "timestamp": "2025-12-02T17:49:12.312340+00:00",
        "meta_object_name": "FENGYUN 1C DEB",
        "meta_object_id": "1999-025CKD",
        "meta_epoch": "2025-11-28T12:08:37.190400",
        "meta_mean_motion": 14.85316011,
        "meta_eccentricity": 0.00849368,
        "meta_inclination": 99.4388,
        "meta_ra_of_asc_node": 253.429,
        "meta_arg_of_pericenter": 283.9567,
        "meta_mean_anomaly": 75.2209,
        "meta_ephemeris_type": 0,
        "meta_classification_type": "U",
        "meta_norad_cat_id": 31878,
        "meta_element_set_no": 999,
        "meta_rev_at_epoch": 97882,
        "meta_bstar": 0.0015078054,
        "meta_mean_motion_dot": 0.00013773,
        "meta_mean_motion_ddot": 0,
        "tle_line1": "1 31878U 99025CKD 25332.50598600  .00013773  00000+0  15078-2 0  9993",
        "tle_line2": "2 31878  99.4388 253.4290 0084936 283.9567  75.2209 14.85316011978824"
      },
      "geometry": {
        "type": "Point",
        "coordinates": [
          -93.90714698214524,
          -38.66264801701896
        ]
      }
    },
    {
      "type": "Feature",
      "properties": {
        "norad_id": 31879,
        "name": "FENGYUN 1C DEB",
        "group": "fengyun-1c-debris",
        "lat": -25.389761082572754,
        "lon": 29.16219028296009,
        "alt_km": 868.0332394365414,
        "timestamp": "2025-12-02T17:49:12.312350+00:00",
        "meta_object_name": "FENGYUN 1C DEB",
        "meta_object_id": "1999-025CKE",
        "meta_epoch": "2025-11-30T14:57:31.019616",
        "meta_mean_motion": 14.42852783,
        "meta_eccentricity": 0.02100165,
        "meta_inclination": 99.7083,
        "meta_ra_of_asc_node": 211.4101,
        "meta_arg_of_pericenter": 71.7903,
        "meta_mean_anomaly": 290.6019,
        "meta_ephemeris_type": 0,
        "meta_classification_type": "U",
        "meta_norad_cat_id": 31879,
        "meta_element_set_no": 999,
        "meta_rev_at_epoch": 63035,
        "meta_bstar": 0.00030156484,
        "meta_mean_motion_dot": 1.248e-05,
        "meta_mean_motion_ddot": 0,
        "tle_line1": "1 31879U 99025CKE 25334.62327569  .00001248  00000+0  30156-3 0  9992",
        "tle_line2": "2 31879  99.7083 211.4101 0210016  71.7903 290.6019 14.42852783630351"
      },
      "geometry": {
        "type": "Point",
        "coordinates": [
          29.16219028296009,
          -25.389761082572754
        ]
      }
    },
    {
      "type": "Feature",
      "properties": {
        "norad_id": 31880,
        "name": "FENGYUN 1C DEB",
        "group": "fengyun-1c-debris",
        "lat": -58.65927666649025,
        "lon": -58.10732380532289,
        "alt_km": 893.0061123961923,
        "timestamp": "2025-12-02T17:49:12.312360+00:00",
        "meta_object_name": "FENGYUN 1C DEB",
        "meta_object_id": "1999-025CKF",
        "meta_epoch": "2025-11-25T04:55:41.522880",
        "meta_mean_motion": 13.89366235,
        "meta_eccentricity": 0.01285165,
        "meta_inclination": 100.0297,
        "meta_ra_of_asc_node": 130.6763,
        "meta_arg_of_pericenter": 197.7169,
        "meta_mean_anomaly": 161.9484,
        "meta_ephemeris_type": 0,
        "meta_classification_type": "U",
        "meta_norad_cat_id": 31880,
        "meta_element_set_no": 999,
        "meta_rev_at_epoch": 62736,
        "meta_bstar": 0.0005535194,
        "meta_mean_motion_dot": 6.7e-06,
        "meta_mean_motion_ddot": 0,
        "tle_line1": "1 31880U 99025CKF 25329.20534170  .00000670  00000+0  55352-3 0  9993",
        "tle_line2": "2 31880 100.0297 130.6763 0128516 197.7169 161.9484 13.89366235627363"
      },
      "geometry": {
        "type": "Point",
        "coordinates": [
          -58.10732380532289,
          -58.65927666649025
        ]
      }
    },
    {
      "type": "Feature",
      "properties": {
        "norad_id": 31882,
        "name": "FENGYUN 1C DEB",
        "group": "fengyun-1c-debris",
        "lat": 49.56760456801975,
        "lon": -111.30266590945962,
        "alt_km": 868.3543767475239,
        "timestamp": "2025-12-02T17:49:12.312370+00:00",
        "meta_object_name": "FENGYUN 1C DEB",
        "meta_object_id": "1999-025CKH",
        "meta_epoch": "2025-11-30T12:53:42.925632",
        "meta_mean_motion": 14.12922645,
        "meta_eccentricity": 0.003563,
        "meta_inclination": 98.9155,
        "meta_ra_of_asc_node": 257.1184,
        "meta_arg_of_pericenter": 260.5301,
        "meta_mean_anomaly": 99.1843,
        "meta_ephemeris_type": 0,
        "meta_classification_type": "U",
        "meta_norad_cat_id": 31882,
        "meta_element_set_no": 999,
        "meta_rev_at_epoch": 58464,
        "meta_bstar": 0.00072141,
        "meta_mean_motion_dot": 1.307e-05,
        "meta_mean_motion_ddot": 0,
        "tle_line1": "1 31882U 99025CKH 25334.53730238  .00001307  00000+0  72141-3 0  9993",
        "tle_line2": "2 31882  98.9155 257.1184 0035630 260.5301  99.1843 14.12922645584640"
      },
      "geometry": {
        "type": "Point",
        "coordinates": [
          -111.30266590945962,
          49.56760456801975
        ]
      }
    },
    {
      "type": "Feature",
      "properties": {
        "norad_id": 31883,
        "name": "FENGYUN 1C DEB",
        "group": "fengyun-1c-debris",
        "lat": -54.86833011566858,
        "lon": -94.59135980513992,
        "alt_km": 755.7706417396894,
        "timestamp": "2025-12-02T17:49:12.312379+00:00",
        "meta_object_name": "FENGYUN 1C DEB",
        "meta_object_id": "1999-025CKJ",
        "meta_epoch": "2025-11-30T05:32:06.274752",
        "meta_mean_motion": 14.67575924,
        "meta_eccentricity": 0.01251433,
        "meta_inclination": 99.0265,
        "meta_ra_of_asc_node": 249.5854,
        "meta_arg_of_pericenter": 107.3455,
        "meta_mean_anomaly": 254.148,
        "meta_ephemeris_type": 0,
        "meta_classification_type": "U",
        "meta_norad_cat_id": 31883,
        "meta_element_set_no": 999,
        "meta_rev_at_epoch": 97795,
        "meta_bstar": 0.00064538299,
        "meta_mean_motion_dot": 4.059e-05,
        "meta_mean_motion_ddot": 0,
        "tle_line1": "1 31883U 99025CKJ 25334.23062818  .00004059  00000+0  64538-3 0  9991",
        "tle_line2": "2 31883  99.0265 249.5854 0125143 107.3455 254.1480 14.67575924977955"
      },
      "geometry": {
        "type": "Point",
        "coordinates": [
          -94.59135980513992,
          -54.86833011566858
        ]
      }
    },
    {
      "type": "Feature",
      "properties": {
        "norad_id": 31887,
        "name": "FENGYUN 1C DEB",
        "group": "fengyun-1c-debris",
        "lat": 77.95305529041707,
        "lon": -25.069439064915493,
        "alt_km": 681.6948613544419,
        "timestamp": "2025-12-02T17:49:12.312389+00:00",
        "meta_object_name": "FENGYUN 1C DEB",
        "meta_object_id": "1999-025CKN",
        "meta_epoch": "2025-12-01T21:40:30.420768",
        "meta_mean_motion": 14.57640474,
        "meta_eccentricity": 0.00244837,
        "meta_inclination": 99.536,
        "meta_ra_of_asc_node": 25.9385,
        "meta_arg_of_pericenter": 37.5978,
        "meta_mean_anomaly": 322.6923,
        "meta_ephemeris_type": 0,
        "meta_classification_type": "U",
        "meta_norad_cat_id": 31887,
        "meta_element_set_no": 999,
        "meta_rev_at_epoch": 96450,
        "meta_bstar": 0.0013108732,
        "meta_mean_motion_dot": 5.945e-05,
        "meta_mean_motion_ddot": 0,
        "tle_line1": "1 31887U 99025CKN 25335.90312987  .00005945  00000+0  13109-2 0  9997",
        "tle_line2": "2 31887  99.5360  25.9385 0024483  37.5978 322.6923 14.57640474964506"
      },
      "geometry": {
        "type": "Point",
        "coordinates": [
          -25.069439064915493,
          77.95305529041707
        ]
      }
    },
    {
      "type": "Feature",
      "properties": {
        "norad_id": 31888,
        "name": "FENGYUN 1C DEB",
        "group": "fengyun-1c-debris",
        "lat": -70.91555119391832,
        "lon": 54.80210775867014,
        "alt_km": 773.4280591159895,
        "timestamp": "2025-12-02T17:49:12.312399+00:00",
        "meta_object_name": "FENGYUN 1C DEB",
        "meta_object_id": "1999-025CKP",
        "meta_epoch": "2025-11-28T00:25:18.962112",
        "meta_mean_motion": 14.3367913,
        "meta_eccentricity": 0.00183068,
        "meta_inclination": 99.1503,
        "meta_ra_of_asc_node": 257.5749,
        "meta_arg_of_pericenter": 264.7226,
        "meta_mean_anomaly": 95.1868,
        "meta_ephemeris_type": 0,
        "meta_classification_type": "U",
        "meta_norad_cat_id": 31888,
        "meta_element_set_no": 999,
        "meta_rev_at_epoch": 95426,
        "meta_bstar": 0.002133667,
        "meta_mean_motion_dot": 5.886e-05,
        "meta_mean_motion_ddot": 0,
        "tle_line1": "1 31888U 99025CKP 25332.01758058  .00005886  00000+0  21337-2 0  9996",
        "tle_line2": "2 31888  99.1503 257.5749 0018306 264.7226  95.1868 14.33679130954263"
      },
      "geometry": {
        "type": "Point",
        "coordinates": [
          54.80210775867014,
          -70.91555119391832
        ]
      }
    }
  ]
}